NAVSTAR 85 (USA 581)    
1 67588U 26017A   26179.16567897 -.00000055  00000+0  00000+0 0  9993
2 67588  55.0953  88.3146 0020894 258.1003 101.6754  2.00570961431838
NAVSTAR 86 (USA 585)    
1 68791U 26087A   26173.65141046  .00000058  00000+0  00000+0 0  9991
2 68791  54.9627 207.5713 0020681 106.6591  76.9843  2.00570839   940
